{
    "links": {
        "self": "http://www.neowsapp.com/rest/v1/neo/3991660?api_key=iIulBulltgU6a56xZRHN4H3l9WmuAYTsLGpBGhQ2"
    },
    "id": "3991660",
    "neo_reference_id": "3991660",
    "name": "(2020 DG1)",
    "designation": "2020 DG1",
    "nasa_jpl_url": "http://ssd.jpl.nasa.gov/sbdb.cgi?sstr=3991660",
    "absolute_magnitude_h": 24.536,
    "estimated_diameter": {
        "kilometers": {
            "estimated_diameter_min": 0.0329120532,
            "estimated_diameter_max": 0.0735935883
        },
        "meters": {
            "estimated_diameter_min": 32.9120532189,
            "estimated_diameter_max": 73.5935882765
        },
        "miles": {
            "estimated_diameter_min": 0.0204505954,
            "estimated_diameter_max": 0.0457289215
        },
        "feet": {
            "estimated_diameter_min": 107.9791806827,
            "estimated_diameter_max": 241.4487881612
        }
    },
    "is_potentially_hazardous_asteroid": false,
    "close_approach_data": [
        {
            "close_approach_date": "2020-02-21",
            "close_approach_date_full": "2020-Feb-21 15:02",
            "epoch_date_close_approach": 1582297320000,
            "relative_velocity": {
                "kilometers_per_second": "24.0175282667",
                "kilometers_per_hour": "86463.1017599407",
                "miles_per_hour": "53724.8089796698"
            },
            "miss_distance": {
                "astronomical": "0.0351193269",
                "lunar": "13.6614181641",
                "kilometers": "5253776.500073703",
                "miles": "3264545.3381669814"
            },
            "orbiting_body": "Earth"
        },
        {
            "close_approach_date": "2108-08-15",
            "close_approach_date_full": "2108-Aug-15 10:07",
            "epoch_date_close_approach": 4374468420000,
            "relative_velocity": {
                "kilometers_per_second": "18.7403853048",
                "kilometers_per_hour": "67465.3870973804",
                "miles_per_hour": "41920.3678883695"
            },
            "miss_distance": {
                "astronomical": "0.1862379083",
                "lunar": "72.4465463287",
                "kilometers": "27860794.394935321",
                "miles": "17311894.8737805898"
            },
            "orbiting_body": "Earth"
        }
    ],
    "orbital_data": {
        "orbit_id": "2",
        "orbit_determination_date": "2020-02-19 09:42:21",
        "first_observation_date": "2020-02-17",
        "last_observation_date": "2020-02-19",
        "data_arc_in_days": 2,
        "observations_used": 22,
        "orbit_uncertainty": "9",
        "minimum_orbit_intersection": ".00377124",
        "jupiter_tisserand_invariant": "2.939",
        "epoch_osculation": "2458897.5",
        "eccentricity": ".7684141942088805",
        "semi_major_axis": "2.5395772504313",
        "inclination": "5.396734059820121",
        "ascending_node_longitude": "151.8740732536733",
        "orbital_period": "1478.22508851921",
        "perihelion_distance": ".5881300439099283",
        "perihelion_argument": "88.51020474905879",
        "aphelion_distance": "4.491024456952671",
        "perihelion_time": "2458944.904145079982",
        "mean_anomaly": "348.4554169988492",
        "mean_motion": ".2435353064942394",
        "equinox": "J2000",
        "orbit_class": {
            "orbit_class_type": "APO",
            "orbit_class_description": "Near-Earth asteroid orbits which cross the Earth’s orbit similar to that of 1862 Apollo",
            "orbit_class_range": "a (semi-major axis) > 1.0 AU; q (perihelion) < 1.017 AU"
        }
    },
    "is_sentry_object": false
}